[{"OBJECT_NAME":"SALSAT","OBJECT_ID":"2020-068K","EPOCH":"2026-03-09T22:26:21.804576","MEAN_MOTION":15.28191989,"ECCENTRICITY":0.00082652,"INCLINATION":97.8859,"RA_OF_ASC_NODE":66.0795,"ARG_OF_PERICENTER":295.8051,"MEAN_ANOMALY":64.2334,"EPHEMERIS_TYPE":0,"CLASSIFICATION_TYPE":"U","NORAD_CAT_ID":46495,"ELEMENT_SET_NO":999,"REV_AT_EPOCH":30019,"BSTAR":0.00040842582,"MEAN_MOTION_DOT":0.00011156,"MEAN_MOTION_DDOT":0},{"OBJECT_NAME":"STARLINK-31112","OBJECT_ID":"2023-211P","EPOCH":"2026-03-09T02:09:33.670656","MEAN_MOTION":15.27574422,"ECCENTRICITY":0.0001135,"INCLINATION":43.0041,"RA_OF_ASC_NODE":88.6008,"ARG_OF_PERICENTER":265.7593,"MEAN_ANOMALY":94.3129,"EPHEMERIS_TYPE":0,"CLASSIFICATION_TYPE":"U","NORAD_CAT_ID":58680,"ELEMENT_SET_NO":999,"REV_AT_EPOCH":12355,"BSTAR":-2.6823561e-5,"MEAN_MOTION_DOT":-1.0e-5,"MEAN_MOTION_DDOT":0}]
